<gpx version="1.1" creator="Matawaka synthetic cinematic demonstration"><metadata><name>Фьорды · синтетический маршрут</name><desc>SYNTHETIC. Invented demonstration, not a historical journey, road or navigable itinerary. MIT.</desc></metadata><trk><trkseg><trkpt lat="60.395000" lon="5.290000"/><trkpt lat="60.395439" lon="5.288995"/><trkpt lat="60.395904" lon="5.287926"/><trkpt lat="60.396395" lon="5.286795"/><trkpt lat="60.396911" lon="5.285602"/><trkpt lat="60.397452" lon="5.284350"/><trkpt lat="60.398017" lon="5.283039"/><trkpt lat="60.398607" lon="5.281670"/><trkpt lat="60.399220" lon="5.280246"/><trkpt lat="60.399856" lon="5.278767"/><trkpt lat="60.400515" lon="5.277234"/><trkpt lat="60.401196" lon="5.275650"/><trkpt lat="60.401899" lon="5.274014"/><trkpt lat="60.402624" lon="5.272330"/><trkpt lat="60.403370" lon="5.270596"/><trkpt lat="60.404136" lon="5.268816"/><trkpt lat="60.404922" lon="5.266991"/><trkpt lat="60.405728" lon="5.265121"/><trkpt lat="60.406553" lon="5.263207"/><trkpt lat="60.407398" lon="5.261253"/><trkpt lat="60.408260" lon="5.259257"/><trkpt lat="60.409141" lon="5.257223"/><trkpt lat="60.410039" lon="5.255150"/><trkpt lat="60.410954" lon="5.253041"/><trkpt lat="60.411886" lon="5.250897"/><trkpt lat="60.412834" lon="5.248719"/><trkpt lat="60.413798" lon="5.246508"/><trkpt lat="60.414778" lon="5.244265"/><trkpt lat="60.415772" lon="5.241993"/><trkpt lat="60.416781" lon="5.239692"/><trkpt lat="60.417804" lon="5.237363"/><trkpt lat="60.418840" lon="5.235008"/><trkpt lat="60.419890" lon="5.232628"/><trkpt lat="60.420953" lon="5.230224"/><trkpt lat="60.422028" lon="5.227799"/><trkpt lat="60.423115" lon="5.225352"/><trkpt lat="60.424214" lon="5.222885"/><trkpt lat="60.425323" lon="5.220400"/><trkpt lat="60.426444" lon="5.217897"/><trkpt lat="60.427574" lon="5.215379"/><trkpt lat="60.428715" lon="5.212846"/><trkpt lat="60.429864" lon="5.210300"/><trkpt lat="60.431022" lon="5.207724"/><trkpt lat="60.432186" lon="5.205091"/><trkpt lat="60.433357" lon="5.202402"/><trkpt lat="60.434536" lon="5.199661"/><trkpt lat="60.435723" lon="5.196869"/><trkpt lat="60.436920" lon="5.194028"/><trkpt lat="60.438126" lon="5.191141"/><trkpt lat="60.439342" lon="5.188210"/><trkpt lat="60.440570" lon="5.185236"/><trkpt lat="60.441809" lon="5.182223"/><trkpt lat="60.443061" lon="5.179171"/><trkpt lat="60.444325" lon="5.176084"/><trkpt lat="60.445603" lon="5.172964"/><trkpt lat="60.446896" lon="5.169812"/><trkpt lat="60.448203" lon="5.166631"/><trkpt lat="60.449526" lon="5.163423"/><trkpt lat="60.450865" lon="5.160190"/><trkpt lat="60.452221" lon="5.156934"/><trkpt lat="60.453594" lon="5.153658"/><trkpt lat="60.454986" lon="5.150363"/><trkpt lat="60.456396" lon="5.147052"/><trkpt lat="60.457826" lon="5.143727"/><trkpt lat="60.459275" lon="5.140390"/><trkpt lat="60.460746" lon="5.137043"/><trkpt lat="60.462238" lon="5.133689"/><trkpt lat="60.463752" lon="5.130329"/><trkpt lat="60.465288" lon="5.126966"/><trkpt lat="60.466848" lon="5.123602"/><trkpt lat="60.468432" lon="5.120239"/><trkpt lat="60.470040" lon="5.116879"/><trkpt lat="60.471674" lon="5.113524"/><trkpt lat="60.473334" lon="5.110177"/><trkpt lat="60.475020" lon="5.106839"/><trkpt lat="60.476733" lon="5.103513"/><trkpt lat="60.478475" lon="5.100202"/><trkpt lat="60.480244" lon="5.096906"/><trkpt lat="60.482043" lon="5.093628"/><trkpt lat="60.483872" lon="5.090371"/><trkpt lat="60.485731" lon="5.087137"/><trkpt lat="60.487621" lon="5.083927"/><trkpt lat="60.489543" lon="5.080745"/><trkpt lat="60.491500" lon="5.077553"/><trkpt lat="60.493497" lon="5.074271"/><trkpt lat="60.495533" lon="5.070900"/><trkpt lat="60.497607" lon="5.067450"/><trkpt lat="60.499717" lon="5.063926"/><trkpt lat="60.501863" lon="5.060337"/><trkpt lat="60.504042" lon="5.056690"/><trkpt lat="60.506254" lon="5.052992"/><trkpt lat="60.508498" lon="5.049250"/><trkpt lat="60.510772" lon="5.045472"/><trkpt lat="60.513074" lon="5.041665"/><trkpt lat="60.515404" lon="5.037836"/><trkpt lat="60.517760" lon="5.033994"/><trkpt lat="60.520141" lon="5.030144"/><trkpt lat="60.522545" lon="5.026295"/><trkpt lat="60.524972" lon="5.022453"/><trkpt lat="60.527420" lon="5.018627"/><trkpt lat="60.529887" lon="5.014823"/><trkpt lat="60.532373" lon="5.011048"/><trkpt lat="60.534876" lon="5.007311"/><trkpt lat="60.537395" lon="5.003619"/><trkpt lat="60.539928" lon="4.999978"/><trkpt lat="60.542475" lon="4.996396"/><trkpt lat="60.545033" lon="4.992881"/><trkpt lat="60.547602" lon="4.989439"/><trkpt lat="60.550181" lon="4.986079"/><trkpt lat="60.552767" lon="4.982807"/><trkpt lat="60.555360" lon="4.979631"/><trkpt lat="60.557959" lon="4.976558"/><trkpt lat="60.560562" lon="4.973596"/><trkpt lat="60.563168" lon="4.970751"/><trkpt lat="60.565775" lon="4.968032"/><trkpt lat="60.568383" lon="4.965445"/><trkpt lat="60.570989" lon="4.962998"/><trkpt lat="60.573593" lon="4.960698"/><trkpt lat="60.576194" lon="4.958552"/><trkpt lat="60.578790" lon="4.956568"/><trkpt lat="60.581379" lon="4.954754"/><trkpt lat="60.583961" lon="4.953116"/><trkpt lat="60.586535" lon="4.951662"/><trkpt lat="60.589098" lon="4.950399"/><trkpt lat="60.591660" lon="4.949315"/><trkpt lat="60.594253" lon="4.948349"/><trkpt lat="60.596877" lon="4.947494"/><trkpt lat="60.599532" lon="4.946749"/><trkpt lat="60.602214" lon="4.946113"/><trkpt lat="60.604922" lon="4.945586"/><trkpt lat="60.607653" lon="4.945166"/><trkpt lat="60.610405" lon="4.944852"/><trkpt lat="60.613176" lon="4.944645"/><trkpt lat="60.615964" lon="4.944542"/><trkpt lat="60.618766" lon="4.944544"/><trkpt lat="60.621581" lon="4.944648"/><trkpt lat="60.624407" lon="4.944855"/><trkpt lat="60.627241" lon="4.945164"/><trkpt lat="60.630080" lon="4.945573"/><trkpt lat="60.632924" lon="4.946082"/><trkpt lat="60.635769" lon="4.946689"/><trkpt lat="60.638614" lon="4.947395"/><trkpt lat="60.641456" lon="4.948198"/><trkpt lat="60.644294" lon="4.949097"/><trkpt lat="60.647124" lon="4.950092"/><trkpt lat="60.649946" lon="4.951181"/><trkpt lat="60.652756" lon="4.952363"/><trkpt lat="60.655553" lon="4.953639"/><trkpt lat="60.658335" lon="4.955007"/><trkpt lat="60.661099" lon="4.956465"/><trkpt lat="60.663842" lon="4.958014"/><trkpt lat="60.666564" lon="4.959653"/><trkpt lat="60.669262" lon="4.961380"/><trkpt lat="60.671933" lon="4.963194"/><trkpt lat="60.674576" lon="4.965095"/><trkpt lat="60.677189" lon="4.967083"/><trkpt lat="60.679768" lon="4.969155"/><trkpt lat="60.682313" lon="4.971312"/><trkpt lat="60.684820" lon="4.973551"/><trkpt lat="60.687288" lon="4.975874"/><trkpt lat="60.689715" lon="4.978278"/><trkpt lat="60.692098" lon="4.980762"/><trkpt lat="60.694435" lon="4.983327"/><trkpt lat="60.696725" lon="4.985971"/><trkpt lat="60.698964" lon="4.988692"/><trkpt lat="60.701147" lon="4.991532"/><trkpt lat="60.703253" lon="4.994701"/><trkpt lat="60.705283" lon="4.998211"/><trkpt lat="60.707241" lon="5.002040"/><trkpt lat="60.709132" lon="5.006170"/><trkpt lat="60.710959" lon="5.010578"/><trkpt lat="60.712727" lon="5.015244"/><trkpt lat="60.714440" lon="5.020148"/><trkpt lat="60.716104" lon="5.025268"/><trkpt lat="60.717721" lon="5.030584"/><trkpt lat="60.719296" lon="5.036076"/><trkpt lat="60.720835" lon="5.041722"/><trkpt lat="60.722340" lon="5.047501"/><trkpt lat="60.723816" lon="5.053394"/><trkpt lat="60.725268" lon="5.059380"/><trkpt lat="60.726700" lon="5.065437"/><trkpt lat="60.728116" lon="5.071544"/><trkpt lat="60.729521" lon="5.077683"/><trkpt lat="60.730918" lon="5.083830"/><trkpt lat="60.732313" lon="5.089967"/><trkpt lat="60.733709" lon="5.096071"/><trkpt lat="60.735111" lon="5.102123"/><trkpt lat="60.736523" lon="5.108102"/><trkpt lat="60.737949" lon="5.113986"/><trkpt lat="60.739394" lon="5.119756"/><trkpt lat="60.740862" lon="5.125390"/><trkpt lat="60.742358" lon="5.130868"/><trkpt lat="60.743885" lon="5.136169"/><trkpt lat="60.745448" lon="5.141273"/><trkpt lat="60.747052" lon="5.146158"/><trkpt lat="60.748700" lon="5.150804"/><trkpt lat="60.750397" lon="5.155191"/><trkpt lat="60.752148" lon="5.159296"/><trkpt lat="60.753955" lon="5.163101"/><trkpt lat="60.755825" lon="5.166584"/><trkpt lat="60.757761" lon="5.169724"/><trkpt lat="60.759768" lon="5.172501"/><trkpt lat="60.761849" lon="5.174893"/><trkpt lat="60.764010" lon="5.176881"/><trkpt lat="60.766254" lon="5.178444"/><trkpt lat="60.768586" lon="5.179560"/><trkpt lat="60.771007" lon="5.180209"/><trkpt lat="60.773500" lon="5.180385"/><trkpt lat="60.776058" lon="5.180105"/><trkpt lat="60.778678" lon="5.179392"/><trkpt lat="60.781358" lon="5.178265"/><trkpt lat="60.784095" lon="5.176747"/><trkpt lat="60.786888" lon="5.174858"/><trkpt lat="60.789733" lon="5.172619"/><trkpt lat="60.792629" lon="5.170053"/><trkpt lat="60.795573" lon="5.167179"/><trkpt lat="60.798562" lon="5.164019"/><trkpt lat="60.801595" lon="5.160595"/><trkpt lat="60.804669" lon="5.156926"/><trkpt lat="60.807781" lon="5.153035"/><trkpt lat="60.810930" lon="5.148943"/><trkpt lat="60.814112" lon="5.144671"/><trkpt lat="60.817326" lon="5.140239"/><trkpt lat="60.820569" lon="5.135669"/><trkpt lat="60.823838" lon="5.130983"/><trkpt lat="60.827132" lon="5.126201"/><trkpt lat="60.830448" lon="5.121344"/><trkpt lat="60.833784" lon="5.116434"/><trkpt lat="60.837136" lon="5.111492"/><trkpt lat="60.840504" lon="5.106539"/><trkpt lat="60.843883" lon="5.101595"/><trkpt lat="60.847273" lon="5.096683"/><trkpt lat="60.850671" lon="5.091823"/><trkpt lat="60.854074" lon="5.087037"/><trkpt lat="60.857480" lon="5.082345"/><trkpt lat="60.860887" lon="5.077770"/><trkpt lat="60.864291" lon="5.073331"/><trkpt lat="60.867692" lon="5.069050"/><trkpt lat="60.871086" lon="5.064948"/><trkpt lat="60.874471" lon="5.061047"/><trkpt lat="60.877845" lon="5.057367"/><trkpt lat="60.881205" lon="5.053930"/><trkpt lat="60.884549" lon="5.050757"/><trkpt lat="60.887875" lon="5.047868"/><trkpt lat="60.891180" lon="5.045286"/><trkpt lat="60.894462" lon="5.043031"/><trkpt lat="60.897718" lon="5.041125"/><trkpt lat="60.900950" lon="5.039573"/><trkpt lat="60.904218" lon="5.038162"/><trkpt lat="60.907540" lon="5.036813"/><trkpt lat="60.910912" lon="5.035529"/><trkpt lat="60.914329" lon="5.034313"/><trkpt lat="60.917788" lon="5.033168"/><trkpt lat="60.921284" lon="5.032095"/><trkpt lat="60.924813" lon="5.031097"/><trkpt lat="60.928372" lon="5.030178"/><trkpt lat="60.931956" lon="5.029339"/><trkpt lat="60.935561" lon="5.028583"/><trkpt lat="60.939183" lon="5.027913"/><trkpt lat="60.942818" lon="5.027332"/><trkpt lat="60.946461" lon="5.026842"/><trkpt lat="60.950109" lon="5.026445"/><trkpt lat="60.953758" lon="5.026144"/><trkpt lat="60.957403" lon="5.025942"/><trkpt lat="60.961041" lon="5.025841"/><trkpt lat="60.964666" lon="5.025845"/><trkpt lat="60.968276" lon="5.025955"/><trkpt lat="60.971866" lon="5.026173"/><trkpt lat="60.975432" lon="5.026504"/><trkpt lat="60.978970" lon="5.026949"/><trkpt lat="60.982475" lon="5.027511"/><trkpt lat="60.985944" lon="5.028192"/><trkpt lat="60.989373" lon="5.028995"/><trkpt lat="60.992757" lon="5.029923"/><trkpt lat="60.996092" lon="5.030978"/><trkpt lat="60.999375" lon="5.032163"/><trkpt lat="61.002601" lon="5.033481"/><trkpt lat="61.005766" lon="5.034933"/><trkpt lat="61.008866" lon="5.036523"/><trkpt lat="61.011896" lon="5.038254"/><trkpt lat="61.014854" lon="5.040126"/><trkpt lat="61.017734" lon="5.042145"/><trkpt lat="61.020533" lon="5.044311"/><trkpt lat="61.023246" lon="5.046628"/><trkpt lat="61.025869" lon="5.049098"/><trkpt lat="61.028399" lon="5.051723"/><trkpt lat="61.030831" lon="5.054507"/><trkpt lat="61.033161" lon="5.057452"/><trkpt lat="61.035385" lon="5.060562"/><trkpt lat="61.037522" lon="5.063913"/><trkpt lat="61.039585" lon="5.067534"/><trkpt lat="61.041574" lon="5.071415"/><trkpt lat="61.043492" lon="5.075544"/><trkpt lat="61.045340" lon="5.079911"/><trkpt lat="61.047120" lon="5.084503"/><trkpt lat="61.048834" lon="5.089309"/><trkpt lat="61.050484" lon="5.094319"/><trkpt lat="61.052071" lon="5.099522"/><trkpt lat="61.053596" lon="5.104905"/><trkpt lat="61.055063" lon="5.110458"/><trkpt lat="61.056471" lon="5.116169"/><trkpt lat="61.057824" lon="5.122028"/><trkpt lat="61.059123" lon="5.128022"/><trkpt lat="61.060369" lon="5.134142"/><trkpt lat="61.061565" lon="5.140375"/><trkpt lat="61.062712" lon="5.146711"/><trkpt lat="61.063811" lon="5.153138"/><trkpt lat="61.064865" lon="5.159645"/><trkpt lat="61.065875" lon="5.166220"/><trkpt lat="61.066843" lon="5.172853"/><trkpt lat="61.067771" lon="5.179532"/><trkpt lat="61.068660" lon="5.186247"/><trkpt lat="61.069512" lon="5.192985"/><trkpt lat="61.070329" lon="5.199736"/><trkpt lat="61.071113" lon="5.206488"/><trkpt lat="61.071865" lon="5.213231"/><trkpt lat="61.072586" lon="5.219953"/><trkpt lat="61.073280" lon="5.226642"/><trkpt lat="61.073947" lon="5.233288"/><trkpt lat="61.074590" lon="5.239879"/><trkpt lat="61.075209" lon="5.246404"/><trkpt lat="61.075807" lon="5.252852"/><trkpt lat="61.076385" lon="5.259212"/><trkpt lat="61.076945" lon="5.265472"/><trkpt lat="61.077490" lon="5.271622"/><trkpt lat="61.078019" lon="5.277649"/><trkpt lat="61.078536" lon="5.283543"/><trkpt lat="61.079043" lon="5.289293"/><trkpt lat="61.079539" lon="5.294887"/><trkpt lat="61.080028" lon="5.300315"/><trkpt lat="61.080473" lon="5.305642"/><trkpt lat="61.080843" lon="5.310930"/><trkpt lat="61.081145" lon="5.316179"/><trkpt lat="61.081379" lon="5.321390"/><trkpt lat="61.081551" lon="5.326565"/><trkpt lat="61.081664" lon="5.331706"/><trkpt lat="61.081720" lon="5.336813"/><trkpt lat="61.081724" lon="5.341887"/><trkpt lat="61.081679" lon="5.346931"/><trkpt lat="61.081588" lon="5.351945"/><trkpt lat="61.081455" lon="5.356930"/><trkpt lat="61.081284" lon="5.361889"/><trkpt lat="61.081077" lon="5.366821"/><trkpt lat="61.080838" lon="5.371730"/><trkpt lat="61.080571" lon="5.376615"/><trkpt lat="61.080279" lon="5.381478"/><trkpt lat="61.079966" lon="5.386320"/><trkpt lat="61.079635" lon="5.391143"/><trkpt lat="61.079289" lon="5.395948"/><trkpt lat="61.078932" lon="5.400737"/><trkpt lat="61.078567" lon="5.405510"/><trkpt lat="61.078198" lon="5.410268"/><trkpt lat="61.077828" lon="5.415014"/><trkpt lat="61.077462" lon="5.419749"/><trkpt lat="61.077101" lon="5.424473"/><trkpt lat="61.076750" lon="5.429188"/><trkpt lat="61.076412" lon="5.433896"/><trkpt lat="61.076090" lon="5.438597"/><trkpt lat="61.075789" lon="5.443293"/><trkpt lat="61.075511" lon="5.447985"/><trkpt lat="61.075260" lon="5.452675"/><trkpt lat="61.075039" lon="5.457364"/><trkpt lat="61.074852" lon="5.462052"/><trkpt lat="61.074702" lon="5.466742"/><trkpt lat="61.074593" lon="5.471435"/><trkpt lat="61.074528" lon="5.476132"/><trkpt lat="61.074510" lon="5.480834"/><trkpt lat="61.074544" lon="5.485543"/><trkpt lat="61.074632" lon="5.490259"/><trkpt lat="61.074778" lon="5.494985"/><trkpt lat="61.074986" lon="5.499721"/><trkpt lat="61.075239" lon="5.504461"/><trkpt lat="61.075516" lon="5.509195"/><trkpt lat="61.075816" lon="5.513923"/><trkpt lat="61.076138" lon="5.518645"/><trkpt lat="61.076482" lon="5.523361"/><trkpt lat="61.076847" lon="5.528072"/><trkpt lat="61.077234" lon="5.532776"/><trkpt lat="61.077641" lon="5.537474"/><trkpt lat="61.078069" lon="5.542167"/><trkpt lat="61.078516" lon="5.546854"/><trkpt lat="61.078983" lon="5.551534"/><trkpt lat="61.079468" lon="5.556209"/><trkpt lat="61.079973" lon="5.560878"/><trkpt lat="61.080495" lon="5.565541"/><trkpt lat="61.081035" lon="5.570198"/><trkpt lat="61.081592" lon="5.574849"/><trkpt lat="61.082166" lon="5.579495"/><trkpt lat="61.082756" lon="5.584134"/><trkpt lat="61.083362" lon="5.588767"/><trkpt lat="61.083984" lon="5.593395"/><trkpt lat="61.084620" lon="5.598016"/><trkpt lat="61.085271" lon="5.602632"/><trkpt lat="61.085937" lon="5.607242"/><trkpt lat="61.086616" lon="5.611846"/><trkpt lat="61.087309" lon="5.616444"/><trkpt lat="61.088014" lon="5.621036"/><trkpt lat="61.088732" lon="5.625622"/><trkpt lat="61.089462" lon="5.630202"/><trkpt lat="61.090204" lon="5.634776"/><trkpt lat="61.090956" lon="5.639344"/><trkpt lat="61.091720" lon="5.643907"/><trkpt lat="61.092493" lon="5.648463"/><trkpt lat="61.093277" lon="5.653014"/><trkpt lat="61.094070" lon="5.657559"/><trkpt lat="61.094872" lon="5.662097"/><trkpt lat="61.095683" lon="5.666630"/><trkpt lat="61.096502" lon="5.671157"/><trkpt lat="61.097328" lon="5.675678"/><trkpt lat="61.098162" lon="5.680193"/><trkpt lat="61.099003" lon="5.684703"/><trkpt lat="61.099850" lon="5.689206"/><trkpt lat="61.100709" lon="5.693707"/><trkpt lat="61.101591" lon="5.698214"/><trkpt lat="61.102495" lon="5.702724"/><trkpt lat="61.103420" lon="5.707238"/><trkpt lat="61.104365" lon="5.711755"/><trkpt lat="61.105330" lon="5.716274"/><trkpt lat="61.106313" lon="5.720793"/><trkpt lat="61.107315" lon="5.725312"/><trkpt lat="61.108333" lon="5.729831"/><trkpt lat="61.109367" lon="5.734348"/><trkpt lat="61.110417" lon="5.738862"/><trkpt lat="61.111480" lon="5.743373"/><trkpt lat="61.112558" lon="5.747880"/><trkpt lat="61.113647" lon="5.752381"/><trkpt lat="61.114749" lon="5.756877"/><trkpt lat="61.115861" lon="5.761365"/><trkpt lat="61.116984" lon="5.765846"/><trkpt lat="61.118115" lon="5.770318"/><trkpt lat="61.119255" lon="5.774781"/><trkpt lat="61.120402" lon="5.779233"/><trkpt lat="61.121556" lon="5.783674"/><trkpt lat="61.122715" lon="5.788104"/><trkpt lat="61.123880" lon="5.792520"/><trkpt lat="61.125048" lon="5.796922"/><trkpt lat="61.126219" lon="5.801310"/><trkpt lat="61.127393" lon="5.805682"/><trkpt lat="61.128568" lon="5.810038"/><trkpt lat="61.129743" lon="5.814377"/><trkpt lat="61.130918" lon="5.818698"/><trkpt lat="61.132092" lon="5.822999"/><trkpt lat="61.133264" lon="5.827281"/><trkpt lat="61.134433" lon="5.831542"/><trkpt lat="61.135598" lon="5.835782"/><trkpt lat="61.136758" lon="5.839999"/><trkpt lat="61.137913" lon="5.844193"/><trkpt lat="61.139062" lon="5.848362"/><trkpt lat="61.140203" lon="5.852507"/><trkpt lat="61.141336" lon="5.856626"/><trkpt lat="61.142460" lon="5.860718"/><trkpt lat="61.143574" lon="5.864782"/><trkpt lat="61.144678" lon="5.868818"/><trkpt lat="61.145780" lon="5.872821"/><trkpt lat="61.146912" lon="5.876778"/><trkpt lat="61.148073" lon="5.880692"/><trkpt lat="61.149259" lon="5.884565"/><trkpt lat="61.150469" lon="5.888398"/><trkpt lat="61.151701" lon="5.892194"/><trkpt lat="61.152951" lon="5.895954"/><trkpt lat="61.154218" lon="5.899682"/><trkpt lat="61.155500" lon="5.903380"/><trkpt lat="61.156793" lon="5.907049"/><trkpt lat="61.158096" lon="5.910691"/><trkpt lat="61.159405" lon="5.914309"/><trkpt lat="61.160720" lon="5.917905"/><trkpt lat="61.162037" lon="5.921481"/><trkpt lat="61.163354" lon="5.925040"/><trkpt lat="61.164669" lon="5.928583"/><trkpt lat="61.165978" lon="5.932112"/><trkpt lat="61.167281" lon="5.935631"/><trkpt lat="61.168574" lon="5.939140"/><trkpt lat="61.169856" lon="5.942642"/><trkpt lat="61.171123" lon="5.946139"/><trkpt lat="61.172373" lon="5.949634"/><trkpt lat="61.173605" lon="5.953128"/><trkpt lat="61.174815" lon="5.956624"/><trkpt lat="61.176001" lon="5.960124"/><trkpt lat="61.177162" lon="5.963629"/><trkpt lat="61.178294" lon="5.967143"/><trkpt lat="61.179395" lon="5.970667"/><trkpt lat="61.180462" lon="5.974204"/><trkpt lat="61.181494" lon="5.977755"/><trkpt lat="61.182489" lon="5.981323"/><trkpt lat="61.183442" lon="5.984910"/><trkpt lat="61.184353" lon="5.988518"/><trkpt lat="61.185219" lon="5.992150"/><trkpt lat="61.186038" lon="5.995806"/><trkpt lat="61.186807" lon="5.999491"/><trkpt lat="61.187523" lon="6.003205"/><trkpt lat="61.188185" lon="6.006951"/><trkpt lat="61.188790" lon="6.010731"/><trkpt lat="61.189335" lon="6.014547"/><trkpt lat="61.189819" lon="6.018401"/><trkpt lat="61.190237" lon="6.022292"/><trkpt lat="61.190581" lon="6.026202"/><trkpt lat="61.190853" lon="6.030130"/><trkpt lat="61.191057" lon="6.034074"/><trkpt lat="61.191196" lon="6.038034"/><trkpt lat="61.191272" lon="6.042010"/><trkpt lat="61.191290" lon="6.046001"/><trkpt lat="61.191252" lon="6.050007"/><trkpt lat="61.191161" lon="6.054028"/><trkpt lat="61.191022" lon="6.058063"/><trkpt lat="61.190837" lon="6.062111"/><trkpt lat="61.190609" lon="6.066172"/><trkpt lat="61.190341" lon="6.070247"/><trkpt lat="61.190038" lon="6.074333"/><trkpt lat="61.189702" lon="6.078432"/><trkpt lat="61.189336" lon="6.082542"/><trkpt lat="61.188943" lon="6.086662"/><trkpt lat="61.188527" lon="6.090794"/><trkpt lat="61.188092" lon="6.094936"/><trkpt lat="61.187639" lon="6.099087"/><trkpt lat="61.187174" lon="6.103248"/><trkpt lat="61.186698" lon="6.107417"/><trkpt lat="61.186214" lon="6.111595"/><trkpt lat="61.185728" lon="6.115781"/><trkpt lat="61.185240" lon="6.119974"/><trkpt lat="61.184755" lon="6.124175"/><trkpt lat="61.184276" lon="6.128382"/><trkpt lat="61.183807" lon="6.132596"/><trkpt lat="61.183350" lon="6.136815"/><trkpt lat="61.182908" lon="6.141040"/><trkpt lat="61.182485" lon="6.145270"/><trkpt lat="61.182085" lon="6.149504"/><trkpt lat="61.181709" lon="6.153743"/><trkpt lat="61.181363" lon="6.157985"/><trkpt lat="61.181048" lon="6.162230"/><trkpt lat="61.180768" lon="6.166479"/><trkpt lat="61.180526" lon="6.170729"/><trkpt lat="61.180326" lon="6.174982"/><trkpt lat="61.180171" lon="6.179236"/><trkpt lat="61.180064" lon="6.183491"/><trkpt lat="61.180008" lon="6.187747"/><trkpt lat="61.179999" lon="6.192007"/><trkpt lat="61.179988" lon="6.196302"/><trkpt lat="61.179968" lon="6.200635"/><trkpt lat="61.179941" lon="6.205002"/><trkpt lat="61.179907" lon="6.209402"/><trkpt lat="61.179870" lon="6.213832"/><trkpt lat="61.179830" lon="6.218289"/><trkpt lat="61.179790" lon="6.222771"/><trkpt lat="61.179750" lon="6.227275"/><trkpt lat="61.179714" lon="6.231798"/><trkpt lat="61.179682" lon="6.236338"/><trkpt lat="61.179656" lon="6.240892"/><trkpt lat="61.179638" lon="6.245458"/><trkpt lat="61.179630" lon="6.250034"/><trkpt lat="61.179633" lon="6.254615"/><trkpt lat="61.179650" lon="6.259201"/><trkpt lat="61.179681" lon="6.263788"/><trkpt lat="61.179729" lon="6.268374"/><trkpt lat="61.179795" lon="6.272956"/><trkpt lat="61.179881" lon="6.277531"/><trkpt lat="61.179989" lon="6.282098"/><trkpt lat="61.180121" lon="6.286652"/><trkpt lat="61.180278" lon="6.291193"/><trkpt lat="61.180461" lon="6.295717"/><trkpt lat="61.180674" lon="6.300222"/><trkpt lat="61.180917" lon="6.304704"/><trkpt lat="61.181192" lon="6.309162"/><trkpt lat="61.181501" lon="6.313593"/><trkpt lat="61.181845" lon="6.317994"/><trkpt lat="61.182227" lon="6.322363"/><trkpt lat="61.182648" lon="6.326697"/><trkpt lat="61.183109" lon="6.330994"/><trkpt lat="61.183613" lon="6.335250"/><trkpt lat="61.184162" lon="6.339464"/><trkpt lat="61.184756" lon="6.343632"/><trkpt lat="61.185398" lon="6.347753"/><trkpt lat="61.186089" lon="6.351823"/><trkpt lat="61.186831" lon="6.355840"/><trkpt lat="61.187627" lon="6.359802"/><trkpt lat="61.188477" lon="6.363705"/><trkpt lat="61.189383" lon="6.367547"/><trkpt lat="61.190349" lon="6.371322"/><trkpt lat="61.191396" lon="6.374984"/><trkpt lat="61.192526" lon="6.378526"/><trkpt lat="61.193736" lon="6.381954"/><trkpt lat="61.195022" lon="6.385277"/><trkpt lat="61.196379" lon="6.388502"/><trkpt lat="61.197805" lon="6.391636"/><trkpt lat="61.199294" lon="6.394687"/><trkpt lat="61.200844" lon="6.397661"/><trkpt lat="61.202450" lon="6.400566"/><trkpt lat="61.204108" lon="6.403410"/><trkpt lat="61.205815" lon="6.406200"/><trkpt lat="61.207566" lon="6.408943"/><trkpt lat="61.209358" lon="6.411646"/><trkpt lat="61.211188" lon="6.414318"/><trkpt lat="61.213050" lon="6.416964"/><trkpt lat="61.214941" lon="6.419593"/><trkpt lat="61.216857" lon="6.422212"/><trkpt lat="61.218795" lon="6.424828"/><trkpt lat="61.220750" lon="6.427449"/><trkpt lat="61.222718" lon="6.430081"/><trkpt lat="61.224697" lon="6.432732"/><trkpt lat="61.226681" lon="6.435411"/><trkpt lat="61.228667" lon="6.438123"/><trkpt lat="61.230651" lon="6.440876"/><trkpt lat="61.232629" lon="6.443677"/><trkpt lat="61.234597" lon="6.446535"/><trkpt lat="61.236552" lon="6.449456"/><trkpt lat="61.238489" lon="6.452447"/><trkpt lat="61.240405" lon="6.455516"/><trkpt lat="61.242296" lon="6.458671"/><trkpt lat="61.244157" lon="6.461918"/><trkpt lat="61.245986" lon="6.465265"/><trkpt lat="61.247777" lon="6.468719"/><trkpt lat="61.249528" lon="6.472287"/><trkpt lat="61.251234" lon="6.475978"/><trkpt lat="61.252891" lon="6.479798"/><trkpt lat="61.254496" lon="6.483754"/><trkpt lat="61.256044" lon="6.487854"/><trkpt lat="61.257533" lon="6.492106"/><trkpt lat="61.258957" lon="6.496516"/><trkpt lat="61.260315" lon="6.501092"/><trkpt lat="61.261665" lon="6.505850"/><trkpt lat="61.263029" lon="6.510786"/><trkpt lat="61.264406" lon="6.515892"/><trkpt lat="61.265792" lon="6.521159"/><trkpt lat="61.267184" lon="6.526579"/><trkpt lat="61.268581" lon="6.532143"/><trkpt lat="61.269979" lon="6.537843"/><trkpt lat="61.271376" lon="6.543669"/><trkpt lat="61.272770" lon="6.549614"/><trkpt lat="61.274158" lon="6.555668"/><trkpt lat="61.275537" lon="6.561823"/><trkpt lat="61.276904" lon="6.568071"/><trkpt lat="61.278257" lon="6.574402"/><trkpt lat="61.279594" lon="6.580808"/><trkpt lat="61.280912" lon="6.587280"/><trkpt lat="61.282209" lon="6.593811"/><trkpt lat="61.283480" lon="6.600390"/><trkpt lat="61.284725" lon="6.607010"/><trkpt lat="61.285941" lon="6.613662"/><trkpt lat="61.287124" lon="6.620337"/><trkpt lat="61.288273" lon="6.627027"/><trkpt lat="61.289385" lon="6.633722"/><trkpt lat="61.290457" lon="6.640415"/><trkpt lat="61.291486" lon="6.647097"/><trkpt lat="61.292470" lon="6.653759"/><trkpt lat="61.293407" lon="6.660392"/><trkpt lat="61.294293" lon="6.666989"/><trkpt lat="61.295127" lon="6.673539"/><trkpt lat="61.295906" lon="6.680035"/><trkpt lat="61.296626" lon="6.686468"/><trkpt lat="61.297286" lon="6.692829"/><trkpt lat="61.297883" lon="6.699110"/><trkpt lat="61.298414" lon="6.705302"/><trkpt lat="61.298876" lon="6.711396"/><trkpt lat="61.299268" lon="6.717385"/><trkpt lat="61.299586" lon="6.723258"/><trkpt lat="61.299829" lon="6.729008"/><trkpt lat="61.299992" lon="6.734625"/><trkpt lat="61.300075" lon="6.740102"/><trkpt lat="61.300073" lon="6.745430"/><trkpt lat="61.299985" lon="6.750601"/><trkpt lat="61.299781" lon="6.755711"/><trkpt lat="61.299447" lon="6.760823"/><trkpt lat="61.298990" lon="6.765932"/><trkpt lat="61.298416" lon="6.771035"/><trkpt lat="61.297731" lon="6.776128"/><trkpt lat="61.296941" lon="6.781207"/><trkpt lat="61.296052" lon="6.786268"/><trkpt lat="61.295069" lon="6.791308"/><trkpt lat="61.294000" lon="6.796322"/><trkpt lat="61.292850" lon="6.801306"/><trkpt lat="61.291624" lon="6.806257"/><trkpt lat="61.290330" lon="6.811171"/><trkpt lat="61.288973" lon="6.816043"/><trkpt lat="61.287560" lon="6.820871"/><trkpt lat="61.286095" lon="6.825650"/><trkpt lat="61.284586" lon="6.830375"/><trkpt lat="61.283038" lon="6.835045"/><trkpt lat="61.281458" lon="6.839653"/><trkpt lat="61.279851" lon="6.844197"/><trkpt lat="61.278223" lon="6.848673"/><trkpt lat="61.276581" lon="6.853077"/><trkpt lat="61.274930" lon="6.857404"/><trkpt lat="61.273277" lon="6.861652"/><trkpt lat="61.271628" lon="6.865815"/><trkpt lat="61.269989" lon="6.869891"/><trkpt lat="61.268365" lon="6.873875"/><trkpt lat="61.266762" lon="6.877764"/><trkpt lat="61.265188" lon="6.881553"/><trkpt lat="61.263648" lon="6.885239"/><trkpt lat="61.262147" lon="6.888818"/><trkpt lat="61.260692" lon="6.892286"/><trkpt lat="61.259290" lon="6.895638"/><trkpt lat="61.257945" lon="6.898872"/><trkpt lat="61.256664" lon="6.901984"/><trkpt lat="61.255453" lon="6.904968"/><trkpt lat="61.254319" lon="6.907822"/><trkpt lat="61.253267" lon="6.910542"/><trkpt lat="61.252303" lon="6.913124"/><trkpt lat="61.251433" lon="6.915563"/><trkpt lat="61.250663" lon="6.917857"/><trkpt lat="61.250000" lon="6.920000"/></trkseg></trk></gpx>
