<gpx version="1.1" creator="Route Story synthetic benchmark"><metadata><name>Синтетический маршрут через 180°</name><desc>SYNTHETIC; deterministic generated geometry, no real journey.</desc></metadata><trk><trkseg><trkpt lat="15.0000000" lon="179.7000000"><ele>100</ele></trkpt><trkpt lat="15.0047519" lon="179.7075949"><ele>114</ele></trkpt><trkpt lat="15.0093839" lon="179.7151899"><ele>120</ele></trkpt><trkpt lat="15.0137789" lon="179.7227848"><ele>114</ele></trkpt><trkpt lat="15.0178260" lon="179.7303797"><ele>99</ele></trkpt><trkpt lat="15.0214230" lon="179.7379747"><ele>85</ele></trkpt><trkpt lat="15.0244791" lon="179.7455696"><ele>80</ele></trkpt><trkpt lat="15.0244791" lon="179.7455696"><ele>87</ele></trkpt><trkpt lat="15.0286755" lon="179.7607595"><ele>102</ele></trkpt><trkpt lat="15.0297099" lon="179.7683544"><ele>115</ele></trkpt><trkpt lat="15.0299941" lon="179.7759494"><ele>120</ele></trkpt><trkpt lat="15.0295209" lon="179.7835443"><ele>113</ele></trkpt><trkpt lat="15.0283024" lon="179.7911392"><ele>98</ele></trkpt><trkpt lat="15.0263693" lon="179.7987342"><ele>84</ele></trkpt><trkpt lat="15.0263693" lon="179.7987342"><ele>80</ele></trkpt><trkpt lat="15.0205712" lon="179.8139241"><ele>88</ele></trkpt><trkpt lat="15.0168526" lon="179.8215190"><ele>103</ele></trkpt><trkpt lat="15.0127086" lon="179.8291139"><ele>116</ele></trkpt><trkpt lat="15.0082436" lon="179.8367089"><ele>120</ele></trkpt><trkpt lat="15.0035705" lon="179.8443038"><ele>111</ele></trkpt><trkpt lat="14.9988073" lon="179.8518987"><ele>96</ele></trkpt><trkpt lat="14.9988073" lon="179.8518987"><ele>83</ele></trkpt><trkpt lat="14.9894907" lon="179.8670886"><ele>80</ele></trkpt><trkpt lat="14.9851725" lon="179.8746835"><ele>89</ele></trkpt><trkpt lat="14.9812288" lon="179.8822785"><ele>105</ele></trkpt><trkpt lat="14.9777590" lon="179.8898734"><ele>117</ele></trkpt><trkpt lat="14.9748507" lon="179.8974684"><ele>119</ele></trkpt><trkpt lat="14.9725775" lon="179.9050633"><ele>110</ele></trkpt><trkpt lat="14.9725775" lon="179.9050633"><ele>95</ele></trkpt><trkpt lat="14.9701481" lon="179.9202532"><ele>82</ele></trkpt><trkpt lat="14.9700534" lon="179.9278481"><ele>81</ele></trkpt><trkpt lat="14.9707147" lon="179.9354430"><ele>91</ele></trkpt><trkpt lat="14.9721155" lon="179.9430380"><ele>106</ele></trkpt><trkpt lat="14.9742203" lon="179.9506329"><ele>118</ele></trkpt><trkpt lat="14.9769761" lon="179.9582278"><ele>119</ele></trkpt><trkpt lat="14.9769761" lon="179.9582278"><ele>108</ele></trkpt><trkpt lat="14.9841474" lon="179.9734177"><ele>93</ele></trkpt><trkpt lat="14.9883819" lon="179.9810127"><ele>82</ele></trkpt><trkpt lat="14.9929097" lon="179.9886076"><ele>81</ele></trkpt><trkpt lat="14.9976165" lon="179.9962025"><ele>92</ele></trkpt><trkpt lat="15.0023835" lon="-179.9962025"><ele>108</ele></trkpt><trkpt lat="15.0070903" lon="-179.9886076"><ele>119</ele></trkpt><trkpt lat="15.0070903" lon="-179.9886076"><ele>118</ele></trkpt><trkpt lat="15.0158526" lon="-179.9734177"><ele>107</ele></trkpt><trkpt lat="15.0196868" lon="-179.9658228"><ele>92</ele></trkpt><trkpt lat="15.0230239" lon="-179.9582278"><ele>81</ele></trkpt><trkpt lat="15.0257797" lon="-179.9506329"><ele>82</ele></trkpt><trkpt lat="15.0278845" lon="-179.9430380"><ele>94</ele></trkpt><trkpt lat="15.0292853" lon="-179.9354430"><ele>109</ele></trkpt><trkpt lat="15.0292853" lon="-179.9354430"><ele>119</ele></trkpt><trkpt lat="15.0298519" lon="-179.9202532"><ele>118</ele></trkpt><trkpt lat="15.0290033" lon="-179.9126582"><ele>105</ele></trkpt><trkpt lat="15.0274225" lon="-179.9050633"><ele>90</ele></trkpt><trkpt lat="15.0251493" lon="-179.8974684"><ele>81</ele></trkpt><trkpt lat="15.0222410" lon="-179.8898734"><ele>83</ele></trkpt><trkpt lat="15.0187712" lon="-179.8822785"><ele>95</ele></trkpt><trkpt lat="15.0187712" lon="-179.8822785"><ele>111</ele></trkpt><trkpt lat="15.0105093" lon="-179.8670886"><ele>120</ele></trkpt><trkpt lat="15.0059258" lon="-179.8594937"><ele>117</ele></trkpt><trkpt lat="15.0011927" lon="-179.8518987"><ele>104</ele></trkpt><trkpt lat="14.9964295" lon="-179.8443038"><ele>89</ele></trkpt><trkpt lat="14.9917564" lon="-179.8367089"><ele>80</ele></trkpt><trkpt lat="14.9872914" lon="-179.8291139"><ele>84</ele></trkpt><trkpt lat="14.9872914" lon="-179.8291139"><ele>97</ele></trkpt><trkpt lat="14.9794288" lon="-179.8139241"><ele>112</ele></trkpt><trkpt lat="14.9762297" lon="-179.8063291"><ele>120</ele></trkpt><trkpt lat="14.9736307" lon="-179.7987342"><ele>116</ele></trkpt><trkpt lat="14.9716976" lon="-179.7911392"><ele>102</ele></trkpt><trkpt lat="14.9704791" lon="-179.7835443"><ele>87</ele></trkpt><trkpt lat="14.9700059" lon="-179.7759494"><ele>80</ele></trkpt><trkpt lat="14.9700059" lon="-179.7759494"><ele>85</ele></trkpt><trkpt lat="14.9713245" lon="-179.7607595"><ele>98</ele></trkpt><trkpt lat="14.9730828" lon="-179.7531646"><ele>113</ele></trkpt><trkpt lat="14.9755209" lon="-179.7455696"><ele>120</ele></trkpt><trkpt lat="14.9785770" lon="-179.7379747"><ele>115</ele></trkpt><trkpt lat="14.9821740" lon="-179.7303797"><ele>101</ele></trkpt><trkpt lat="14.9862211" lon="-179.7227848"><ele>86</ele></trkpt><trkpt lat="14.9862211" lon="-179.7227848"><ele>80</ele></trkpt><trkpt lat="14.9952481" lon="-179.7075949"><ele>86</ele></trkpt><trkpt lat="15.0000000" lon="-179.7000000"><ele>100</ele></trkpt></trkseg></trk></gpx>
