<?xml version="1.0" encoding="UTF-8"?>
<gpx version="1.1" creator="Route Story synthetic terrain demonstration" xmlns="http://www.topografix.com/GPX/1/1"><metadata><name>Над склонами Согне-фьорда · синтетический маршрут</name><desc>Entirely synthetic authored coordinates over real Kartverket terrain. Not a historical journey, road or hiking recommendation. No fabricated GPX elevation or timestamps.</desc></metadata><trk><name>Над склонами Согне-фьорда · синтетический маршрут</name><trkseg>
<trkpt lat="61.2305374" lon="6.0970665"/>
<trkpt lat="61.2306766" lon="6.0972213"/>
<trkpt lat="61.2308243" lon="6.0973816"/>
<trkpt lat="61.2309804" lon="6.0975473"/>
<trkpt lat="61.2311445" lon="6.0977184"/>
<trkpt lat="61.2313166" lon="6.0978948"/>
<trkpt lat="61.2314964" lon="6.0980765"/>
<trkpt lat="61.2316837" lon="6.0982632"/>
<trkpt lat="61.2318783" lon="6.0984551"/>
<trkpt lat="61.2320800" lon="6.0986520"/>
<trkpt lat="61.2322886" lon="6.0988539"/>
<trkpt lat="61.2325039" lon="6.0990607"/>
<trkpt lat="61.2327258" lon="6.0992723"/>
<trkpt lat="61.2329539" lon="6.0994886"/>
<trkpt lat="61.2331882" lon="6.0997097"/>
<trkpt lat="61.2334283" lon="6.0999354"/>
<trkpt lat="61.2336742" lon="6.1001657"/>
<trkpt lat="61.2339256" lon="6.1004005"/>
<trkpt lat="61.2341823" lon="6.1006397"/>
<trkpt lat="61.2344441" lon="6.1008833"/>
<trkpt lat="61.2347108" lon="6.1011312"/>
<trkpt lat="61.2349822" lon="6.1013833"/>
<trkpt lat="61.2352581" lon="6.1016396"/>
<trkpt lat="61.2355384" lon="6.1019000"/>
<trkpt lat="61.2358227" lon="6.1021645"/>
<trkpt lat="61.2361109" lon="6.1024329"/>
<trkpt lat="61.2364029" lon="6.1027053"/>
<trkpt lat="61.2366983" lon="6.1029814"/>
<trkpt lat="61.2369971" lon="6.1032614"/>
<trkpt lat="61.2372990" lon="6.1035451"/>
<trkpt lat="61.2376037" lon="6.1038324"/>
<trkpt lat="61.2379112" lon="6.1041234"/>
<trkpt lat="61.2382212" lon="6.1044178"/>
<trkpt lat="61.2385335" lon="6.1047157"/>
<trkpt lat="61.2388478" lon="6.1050169"/>
<trkpt lat="61.2391641" lon="6.1053215"/>
<trkpt lat="61.2394821" lon="6.1056294"/>
<trkpt lat="61.2398016" lon="6.1059404"/>
<trkpt lat="61.2401224" lon="6.1062545"/>
<trkpt lat="61.2404443" lon="6.1065717"/>
<trkpt lat="61.2407671" lon="6.1068919"/>
<trkpt lat="61.2410907" lon="6.1072150"/>
<trkpt lat="61.2414147" lon="6.1075410"/>
<trkpt lat="61.2417390" lon="6.1078698"/>
<trkpt lat="61.2420634" lon="6.1082013"/>
<trkpt lat="61.2423877" lon="6.1085354"/>
<trkpt lat="61.2427117" lon="6.1088722"/>
<trkpt lat="61.2430353" lon="6.1092115"/>
<trkpt lat="61.2433581" lon="6.1095532"/>
<trkpt lat="61.2436800" lon="6.1098974"/>
<trkpt lat="61.2440008" lon="6.1102439"/>
<trkpt lat="61.2443204" lon="6.1105926"/>
<trkpt lat="61.2446384" lon="6.1109435"/>
<trkpt lat="61.2449547" lon="6.1112966"/>
<trkpt lat="61.2452691" lon="6.1116518"/>
<trkpt lat="61.2455815" lon="6.1120089"/>
<trkpt lat="61.2458915" lon="6.1123680"/>
<trkpt lat="61.2461990" lon="6.1127290"/>
<trkpt lat="61.2465038" lon="6.1130917"/>
<trkpt lat="61.2468057" lon="6.1134562"/>
<trkpt lat="61.2471045" lon="6.1138224"/>
<trkpt lat="61.2474001" lon="6.1141902"/>
<trkpt lat="61.2476921" lon="6.1145595"/>
<trkpt lat="61.2479804" lon="6.1149303"/>
<trkpt lat="61.2482648" lon="6.1153025"/>
<trkpt lat="61.2485451" lon="6.1156761"/>
<trkpt lat="61.2488211" lon="6.1160509"/>
<trkpt lat="61.2490926" lon="6.1164270"/>
<trkpt lat="61.2493594" lon="6.1168042"/>
<trkpt lat="61.2496213" lon="6.1171825"/>
<trkpt lat="61.2498780" lon="6.1175618"/>
<trkpt lat="61.2501295" lon="6.1179420"/>
<trkpt lat="61.2503755" lon="6.1183232"/>
<trkpt lat="61.2506158" lon="6.1187051"/>
<trkpt lat="61.2508501" lon="6.1190878"/>
<trkpt lat="61.2510784" lon="6.1194712"/>
<trkpt lat="61.2513003" lon="6.1198552"/>
<trkpt lat="61.2515158" lon="6.1202398"/>
<trkpt lat="61.2517245" lon="6.1206249"/>
<trkpt lat="61.2519263" lon="6.1210104"/>
<trkpt lat="61.2521211" lon="6.1213962"/>
<trkpt lat="61.2523101" lon="6.1217852"/>
<trkpt lat="61.2524950" lon="6.1221803"/>
<trkpt lat="61.2526758" lon="6.1225811"/>
<trkpt lat="61.2528527" lon="6.1229877"/>
<trkpt lat="61.2530257" lon="6.1233998"/>
<trkpt lat="61.2531949" lon="6.1238172"/>
<trkpt lat="61.2533603" lon="6.1242399"/>
<trkpt lat="61.2535222" lon="6.1246676"/>
<trkpt lat="61.2536805" lon="6.1251003"/>
<trkpt lat="61.2538354" lon="6.1255377"/>
<trkpt lat="61.2539869" lon="6.1259797"/>
<trkpt lat="61.2541351" lon="6.1264261"/>
<trkpt lat="61.2542801" lon="6.1268769"/>
<trkpt lat="61.2544220" lon="6.1273318"/>
<trkpt lat="61.2545608" lon="6.1277907"/>
<trkpt lat="61.2546967" lon="6.1282534"/>
<trkpt lat="61.2548298" lon="6.1287199"/>
<trkpt lat="61.2549600" lon="6.1291898"/>
<trkpt lat="61.2550875" lon="6.1296632"/>
<trkpt lat="61.2552125" lon="6.1301397"/>
<trkpt lat="61.2553349" lon="6.1306193"/>
<trkpt lat="61.2554548" lon="6.1311019"/>
<trkpt lat="61.2555724" lon="6.1315872"/>
<trkpt lat="61.2556878" lon="6.1320751"/>
<trkpt lat="61.2558009" lon="6.1325655"/>
<trkpt lat="61.2559119" lon="6.1330581"/>
<trkpt lat="61.2560209" lon="6.1335530"/>
<trkpt lat="61.2561280" lon="6.1340498"/>
<trkpt lat="61.2562332" lon="6.1345484"/>
<trkpt lat="61.2563366" lon="6.1350488"/>
<trkpt lat="61.2564384" lon="6.1355507"/>
<trkpt lat="61.2565385" lon="6.1360539"/>
<trkpt lat="61.2566372" lon="6.1365584"/>
<trkpt lat="61.2567344" lon="6.1370640"/>
<trkpt lat="61.2568302" lon="6.1375705"/>
<trkpt lat="61.2569248" lon="6.1380778"/>
<trkpt lat="61.2570182" lon="6.1385856"/>
<trkpt lat="61.2571105" lon="6.1390940"/>
<trkpt lat="61.2572018" lon="6.1396026"/>
<trkpt lat="61.2572922" lon="6.1401114"/>
<trkpt lat="61.2573817" lon="6.1406202"/>
<trkpt lat="61.2574705" lon="6.1411288"/>
<trkpt lat="61.2575585" lon="6.1416372"/>
<trkpt lat="61.2576460" lon="6.1421450"/>
<trkpt lat="61.2577330" lon="6.1426523"/>
<trkpt lat="61.2578196" lon="6.1431588"/>
<trkpt lat="61.2579058" lon="6.1436644"/>
<trkpt lat="61.2579918" lon="6.1441688"/>
<trkpt lat="61.2580776" lon="6.1446721"/>
<trkpt lat="61.2581634" lon="6.1451740"/>
<trkpt lat="61.2582491" lon="6.1456743"/>
<trkpt lat="61.2583349" lon="6.1461730"/>
<trkpt lat="61.2584209" lon="6.1466698"/>
<trkpt lat="61.2585071" lon="6.1471647"/>
<trkpt lat="61.2585937" lon="6.1476573"/>
<trkpt lat="61.2586807" lon="6.1481477"/>
<trkpt lat="61.2587682" lon="6.1486356"/>
<trkpt lat="61.2588563" lon="6.1491209"/>
<trkpt lat="61.2589451" lon="6.1496035"/>
<trkpt lat="61.2590346" lon="6.1500831"/>
<trkpt lat="61.2591250" lon="6.1505596"/>
<trkpt lat="61.2592163" lon="6.1510330"/>
<trkpt lat="61.2593086" lon="6.1515029"/>
<trkpt lat="61.2594020" lon="6.1519693"/>
<trkpt lat="61.2594965" lon="6.1524321"/>
<trkpt lat="61.2595924" lon="6.1528910"/>
<trkpt lat="61.2596896" lon="6.1533459"/>
<trkpt lat="61.2597882" lon="6.1537966"/>
<trkpt lat="61.2598884" lon="6.1542431"/>
<trkpt lat="61.2599901" lon="6.1546851"/>
<trkpt lat="61.2600936" lon="6.1551225"/>
<trkpt lat="61.2601988" lon="6.1555552"/>
<trkpt lat="61.2603058" lon="6.1559829"/>
<trkpt lat="61.2604148" lon="6.1564056"/>
<trkpt lat="61.2605258" lon="6.1568230"/>
<trkpt lat="61.2606390" lon="6.1572351"/>
<trkpt lat="61.2607543" lon="6.1576416"/>
<trkpt lat="61.2608719" lon="6.1580425"/>
<trkpt lat="61.2609919" lon="6.1584375"/>
<trkpt lat="61.2611143" lon="6.1588266"/>
<trkpt lat="61.2612380" lon="6.1592100"/>
<trkpt lat="61.2613619" lon="6.1595882"/>
<trkpt lat="61.2614859" lon="6.1599614"/>
<trkpt lat="61.2616101" lon="6.1603298"/>
<trkpt lat="61.2617344" lon="6.1606933"/>
<trkpt lat="61.2618589" lon="6.1610522"/>
<trkpt lat="61.2619836" lon="6.1614065"/>
<trkpt lat="61.2621085" lon="6.1617564"/>
<trkpt lat="61.2622335" lon="6.1621021"/>
<trkpt lat="61.2623587" lon="6.1624435"/>
<trkpt lat="61.2624842" lon="6.1627809"/>
<trkpt lat="61.2626098" lon="6.1631143"/>
<trkpt lat="61.2627356" lon="6.1634440"/>
<trkpt lat="61.2628616" lon="6.1637699"/>
<trkpt lat="61.2629879" lon="6.1640923"/>
<trkpt lat="61.2631144" lon="6.1644112"/>
<trkpt lat="61.2632411" lon="6.1647268"/>
<trkpt lat="61.2633680" lon="6.1650391"/>
<trkpt lat="61.2634951" lon="6.1653484"/>
<trkpt lat="61.2636225" lon="6.1656547"/>
<trkpt lat="61.2637502" lon="6.1659581"/>
<trkpt lat="61.2638781" lon="6.1662589"/>
<trkpt lat="61.2640062" lon="6.1665570"/>
<trkpt lat="61.2641346" lon="6.1668526"/>
<trkpt lat="61.2642633" lon="6.1671458"/>
<trkpt lat="61.2643923" lon="6.1674368"/>
<trkpt lat="61.2645215" lon="6.1677257"/>
<trkpt lat="61.2646510" lon="6.1680126"/>
<trkpt lat="61.2647808" lon="6.1682976"/>
<trkpt lat="61.2649109" lon="6.1685808"/>
<trkpt lat="61.2650413" lon="6.1688623"/>
<trkpt lat="61.2651720" lon="6.1691424"/>
<trkpt lat="61.2653030" lon="6.1694210"/>
<trkpt lat="61.2654343" lon="6.1696984"/>
<trkpt lat="61.2655660" lon="6.1699746"/>
<trkpt lat="61.2656979" lon="6.1702497"/>
<trkpt lat="61.2658302" lon="6.1705240"/>
<trkpt lat="61.2659629" lon="6.1707974"/>
<trkpt lat="61.2660958" lon="6.1710702"/>
<trkpt lat="61.2662292" lon="6.1713424"/>
<trkpt lat="61.2663628" lon="6.1716141"/>
<trkpt lat="61.2664969" lon="6.1718856"/>
<trkpt lat="61.2666312" lon="6.1721568"/>
<trkpt lat="61.2667660" lon="6.1724280"/>
<trkpt lat="61.2669011" lon="6.1726992"/>
<trkpt lat="61.2670366" lon="6.1729705"/>
<trkpt lat="61.2671725" lon="6.1732422"/>
<trkpt lat="61.2673088" lon="6.1735143"/>
<trkpt lat="61.2674455" lon="6.1737869"/>
<trkpt lat="61.2675825" lon="6.1740601"/>
<trkpt lat="61.2677200" lon="6.1743341"/>
<trkpt lat="61.2678579" lon="6.1746090"/>
<trkpt lat="61.2679962" lon="6.1748849"/>
<trkpt lat="61.2681349" lon="6.1751619"/>
<trkpt lat="61.2682740" lon="6.1754402"/>
<trkpt lat="61.2684136" lon="6.1757198"/>
<trkpt lat="61.2685536" lon="6.1760010"/>
<trkpt lat="61.2686941" lon="6.1762837"/>
<trkpt lat="61.2688350" lon="6.1765682"/>
<trkpt lat="61.2689763" lon="6.1768546"/>
<trkpt lat="61.2691181" lon="6.1771429"/>
<trkpt lat="61.2692604" lon="6.1774333"/>
<trkpt lat="61.2694031" lon="6.1777259"/>
<trkpt lat="61.2695463" lon="6.1780209"/>
<trkpt lat="61.2696900" lon="6.1783183"/>
<trkpt lat="61.2698341" lon="6.1786183"/>
<trkpt lat="61.2699788" lon="6.1789210"/>
<trkpt lat="61.2701239" lon="6.1792265"/>
<trkpt lat="61.2702696" lon="6.1795349"/>
<trkpt lat="61.2704157" lon="6.1798464"/>
<trkpt lat="61.2705624" lon="6.1801611"/>
<trkpt lat="61.2707096" lon="6.1804791"/>
<trkpt lat="61.2708573" lon="6.1808005"/>
<trkpt lat="61.2710055" lon="6.1811255"/>
<trkpt lat="61.2711542" lon="6.1814541"/>
<trkpt lat="61.2713035" lon="6.1817865"/>
<trkpt lat="61.2714533" lon="6.1821228"/>
<trkpt lat="61.2716037" lon="6.1824631"/>
<trkpt lat="61.2717546" lon="6.1828076"/>
<trkpt lat="61.2719061" lon="6.1831563"/>
<trkpt lat="61.2720580" lon="6.1835096"/>
<trkpt lat="61.2722102" lon="6.1838673"/>
<trkpt lat="61.2723627" lon="6.1842295"/>
<trkpt lat="61.2725155" lon="6.1845960"/>
<trkpt lat="61.2726685" lon="6.1849666"/>
<trkpt lat="61.2728219" lon="6.1853413"/>
<trkpt lat="61.2729756" lon="6.1857198"/>
<trkpt lat="61.2731296" lon="6.1861021"/>
<trkpt lat="61.2732840" lon="6.1864880"/>
<trkpt lat="61.2734386" lon="6.1868774"/>
<trkpt lat="61.2735937" lon="6.1872702"/>
<trkpt lat="61.2737490" lon="6.1876662"/>
<trkpt lat="61.2739047" lon="6.1880653"/>
<trkpt lat="61.2740607" lon="6.1884674"/>
<trkpt lat="61.2742171" lon="6.1888723"/>
<trkpt lat="61.2743739" lon="6.1892799"/>
<trkpt lat="61.2745310" lon="6.1896901"/>
<trkpt lat="61.2746885" lon="6.1901028"/>
<trkpt lat="61.2748463" lon="6.1905177"/>
<trkpt lat="61.2750046" lon="6.1909348"/>
<trkpt lat="61.2751632" lon="6.1913540"/>
<trkpt lat="61.2753222" lon="6.1917751"/>
<trkpt lat="61.2754816" lon="6.1921980"/>
<trkpt lat="61.2756414" lon="6.1926225"/>
<trkpt lat="61.2758017" lon="6.1930485"/>
<trkpt lat="61.2759623" lon="6.1934759"/>
<trkpt lat="61.2761234" lon="6.1939046"/>
<trkpt lat="61.2762849" lon="6.1943344"/>
<trkpt lat="61.2764468" lon="6.1947653"/>
<trkpt lat="61.2766091" lon="6.1951969"/>
<trkpt lat="61.2767719" lon="6.1956293"/>
<trkpt lat="61.2769351" lon="6.1960623"/>
<trkpt lat="61.2770988" lon="6.1964958"/>
<trkpt lat="61.2772629" lon="6.1969296"/>
<trkpt lat="61.2774275" lon="6.1973636"/>
<trkpt lat="61.2775926" lon="6.1977977"/>
<trkpt lat="61.2777581" lon="6.1982317"/>
<trkpt lat="61.2779241" lon="6.1986655"/>
<trkpt lat="61.2780906" lon="6.1990991"/>
<trkpt lat="61.2782576" lon="6.1995321"/>
<trkpt lat="61.2784250" lon="6.1999646"/>
<trkpt lat="61.2785930" lon="6.2003964"/>
<trkpt lat="61.2787615" lon="6.2008273"/>
<trkpt lat="61.2789304" lon="6.2012572"/>
<trkpt lat="61.2790999" lon="6.2016860"/>
<trkpt lat="61.2792699" lon="6.2021136"/>
<trkpt lat="61.2794404" lon="6.2025398"/>
<trkpt lat="61.2796115" lon="6.2029645"/>
<trkpt lat="61.2797831" lon="6.2033875"/>
<trkpt lat="61.2799552" lon="6.2038088"/>
<trkpt lat="61.2801279" lon="6.2042282"/>
<trkpt lat="61.2803011" lon="6.2046456"/>
<trkpt lat="61.2804749" lon="6.2050608"/>
<trkpt lat="61.2806492" lon="6.2054737"/>
<trkpt lat="61.2808241" lon="6.2058841"/>
<trkpt lat="61.2809996" lon="6.2062920"/>
<trkpt lat="61.2811756" lon="6.2066973"/>
<trkpt lat="61.2813523" lon="6.2070997"/>
<trkpt lat="61.2815295" lon="6.2074991"/>
<trkpt lat="61.2817073" lon="6.2078955"/>
<trkpt lat="61.2818857" lon="6.2082886"/>
<trkpt lat="61.2820647" lon="6.2086784"/>
<trkpt lat="61.2822443" lon="6.2090647"/>
<trkpt lat="61.2824246" lon="6.2094474"/>
<trkpt lat="61.2826054" lon="6.2098264"/>
<trkpt lat="61.2827869" lon="6.2102015"/>
<trkpt lat="61.2829690" lon="6.2105726"/>
<trkpt lat="61.2831517" lon="6.2109395"/>
<trkpt lat="61.2833351" lon="6.2113022"/>
<trkpt lat="61.2835191" lon="6.2116604"/>
<trkpt lat="61.2837038" lon="6.2120142"/>
<trkpt lat="61.2838891" lon="6.2123633"/>
<trkpt lat="61.2840751" lon="6.2127075"/>
<trkpt lat="61.2842617" lon="6.2130469"/>
<trkpt lat="61.2844491" lon="6.2133812"/>
<trkpt lat="61.2846371" lon="6.2137103"/>
<trkpt lat="61.2848257" lon="6.2140341"/>
<trkpt lat="61.2850151" lon="6.2143524"/>
<trkpt lat="61.2852052" lon="6.2146651"/>
<trkpt lat="61.2853959" lon="6.2149722"/>
<trkpt lat="61.2855876" lon="6.2152737"/>
<trkpt lat="61.2857804" lon="6.2155700"/>
<trkpt lat="61.2859742" lon="6.2158613"/>
<trkpt lat="61.2861691" lon="6.2161477"/>
<trkpt lat="61.2863651" lon="6.2164293"/>
<trkpt lat="61.2865620" lon="6.2167061"/>
<trkpt lat="61.2867600" lon="6.2169783"/>
<trkpt lat="61.2869589" lon="6.2172460"/>
<trkpt lat="61.2871588" lon="6.2175094"/>
<trkpt lat="61.2873597" lon="6.2177685"/>
<trkpt lat="61.2875614" lon="6.2180234"/>
<trkpt lat="61.2877641" lon="6.2182742"/>
<trkpt lat="61.2879676" lon="6.2185211"/>
<trkpt lat="61.2881719" lon="6.2187642"/>
<trkpt lat="61.2883771" lon="6.2190035"/>
<trkpt lat="61.2885831" lon="6.2192392"/>
<trkpt lat="61.2887899" lon="6.2194714"/>
<trkpt lat="61.2889974" lon="6.2197002"/>
<trkpt lat="61.2892057" lon="6.2199257"/>
<trkpt lat="61.2894148" lon="6.2201481"/>
<trkpt lat="61.2896245" lon="6.2203673"/>
<trkpt lat="61.2898349" lon="6.2205836"/>
<trkpt lat="61.2900459" lon="6.2207971"/>
<trkpt lat="61.2902576" lon="6.2210078"/>
<trkpt lat="61.2904700" lon="6.2212159"/>
<trkpt lat="61.2906829" lon="6.2214214"/>
<trkpt lat="61.2908964" lon="6.2216246"/>
<trkpt lat="61.2911104" lon="6.2218254"/>
<trkpt lat="61.2913250" lon="6.2220241"/>
<trkpt lat="61.2915401" lon="6.2222206"/>
<trkpt lat="61.2917557" lon="6.2224152"/>
<trkpt lat="61.2919718" lon="6.2226079"/>
<trkpt lat="61.2921883" lon="6.2227989"/>
<trkpt lat="61.2924052" lon="6.2229882"/>
<trkpt lat="61.2926225" lon="6.2231760"/>
<trkpt lat="61.2928403" lon="6.2233624"/>
<trkpt lat="61.2930584" lon="6.2235475"/>
<trkpt lat="61.2932768" lon="6.2237313"/>
<trkpt lat="61.2934956" lon="6.2239140"/>
<trkpt lat="61.2937146" lon="6.2240958"/>
<trkpt lat="61.2939340" lon="6.2242767"/>
<trkpt lat="61.2941536" lon="6.2244568"/>
<trkpt lat="61.2943734" lon="6.2246363"/>
<trkpt lat="61.2945935" lon="6.2248152"/>
<trkpt lat="61.2948138" lon="6.2249936"/>
<trkpt lat="61.2950342" lon="6.2251718"/>
<trkpt lat="61.2952548" lon="6.2253497"/>
<trkpt lat="61.2954755" lon="6.2255275"/>
<trkpt lat="61.2956963" lon="6.2257053"/>
<trkpt lat="61.2959173" lon="6.2258833"/>
<trkpt lat="61.2961383" lon="6.2260614"/>
<trkpt lat="61.2963593" lon="6.2262399"/>
<trkpt lat="61.2965804" lon="6.2264188"/>
<trkpt lat="61.2968015" lon="6.2265982"/>
<trkpt lat="61.2970225" lon="6.2267783"/>
<trkpt lat="61.2972436" lon="6.2269592"/>
<trkpt lat="61.2974645" lon="6.2271410"/>
<trkpt lat="61.2976854" lon="6.2273237"/>
<trkpt lat="61.2979062" lon="6.2275076"/>
<trkpt lat="61.2981269" lon="6.2276926"/>
<trkpt lat="61.2983475" lon="6.2278790"/>
<trkpt lat="61.2985678" lon="6.2280668"/>
<trkpt lat="61.2987880" lon="6.2282561"/>
<trkpt lat="61.2990080" lon="6.2284471"/>
<trkpt lat="61.2992278" lon="6.2286398"/>
<trkpt lat="61.2994473" lon="6.2288344"/>
<trkpt lat="61.2996666" lon="6.2290310"/>
<trkpt lat="61.2998855" lon="6.2292296"/>
<trkpt lat="61.3001042" lon="6.2294305"/>
<trkpt lat="61.3003225" lon="6.2296336"/>
<trkpt lat="61.3005405" lon="6.2298392"/>
<trkpt lat="61.3007581" lon="6.2300472"/>
<trkpt lat="61.3009753" lon="6.2302579"/>
<trkpt lat="61.3011921" lon="6.2304714"/>
<trkpt lat="61.3014085" lon="6.2306877"/>
<trkpt lat="61.3016244" lon="6.2309070"/>
<trkpt lat="61.3018398" lon="6.2311293"/>
<trkpt lat="61.3020547" lon="6.2313548"/>
<trkpt lat="61.3022691" lon="6.2315836"/>
<trkpt lat="61.3024830" lon="6.2318158"/>
<trkpt lat="61.3026971" lon="6.2320541"/>
<trkpt lat="61.3029121" lon="6.2323008"/>
<trkpt lat="61.3031280" lon="6.2325557"/>
<trkpt lat="61.3033448" lon="6.2328185"/>
<trkpt lat="61.3035625" lon="6.2330888"/>
<trkpt lat="61.3037809" lon="6.2333663"/>
<trkpt lat="61.3040001" lon="6.2336508"/>
<trkpt lat="61.3042200" lon="6.2339419"/>
<trkpt lat="61.3044407" lon="6.2342393"/>
<trkpt lat="61.3046619" lon="6.2345427"/>
<trkpt lat="61.3048838" lon="6.2348518"/>
<trkpt lat="61.3051063" lon="6.2351663"/>
<trkpt lat="61.3053293" lon="6.2354859"/>
<trkpt lat="61.3055528" lon="6.2358103"/>
<trkpt lat="61.3057767" lon="6.2361391"/>
<trkpt lat="61.3060012" lon="6.2364722"/>
<trkpt lat="61.3062259" lon="6.2368090"/>
<trkpt lat="61.3064511" lon="6.2371495"/>
<trkpt lat="61.3066766" lon="6.2374932"/>
<trkpt lat="61.3069023" lon="6.2378398"/>
<trkpt lat="61.3071283" lon="6.2381890"/>
<trkpt lat="61.3073545" lon="6.2385406"/>
<trkpt lat="61.3075809" lon="6.2388942"/>
<trkpt lat="61.3078074" lon="6.2392495"/>
<trkpt lat="61.3080341" lon="6.2396062"/>
<trkpt lat="61.3082607" lon="6.2399640"/>
<trkpt lat="61.3084874" lon="6.2403226"/>
<trkpt lat="61.3087141" lon="6.2406817"/>
<trkpt lat="61.3089408" lon="6.2410409"/>
<trkpt lat="61.3091673" lon="6.2414000"/>
<trkpt lat="61.3093937" lon="6.2417587"/>
<trkpt lat="61.3096200" lon="6.2421167"/>
<trkpt lat="61.3098461" lon="6.2424735"/>
<trkpt lat="61.3100719" lon="6.2428291"/>
<trkpt lat="61.3102975" lon="6.2431829"/>
<trkpt lat="61.3105228" lon="6.2435348"/>
<trkpt lat="61.3107477" lon="6.2438844"/>
<trkpt lat="61.3109722" lon="6.2442314"/>
<trkpt lat="61.3111963" lon="6.2445755"/>
<trkpt lat="61.3114200" lon="6.2449165"/>
<trkpt lat="61.3116432" lon="6.2452539"/>
<trkpt lat="61.3118658" lon="6.2455875"/>
<trkpt lat="61.3120879" lon="6.2459169"/>
<trkpt lat="61.3123094" lon="6.2462420"/>
<trkpt lat="61.3125302" lon="6.2465623"/>
<trkpt lat="61.3127504" lon="6.2468775"/>
<trkpt lat="61.3129698" lon="6.2471874"/>
<trkpt lat="61.3131885" lon="6.2474917"/>
<trkpt lat="61.3134064" lon="6.2477899"/>
<trkpt lat="61.3136235" lon="6.2480820"/>
<trkpt lat="61.3138397" lon="6.2483674"/>
<trkpt lat="61.3140551" lon="6.2486459"/>
<trkpt lat="61.3142695" lon="6.2489173"/>
<trkpt lat="61.3144829" lon="6.2491811"/>
<trkpt lat="61.3146953" lon="6.2494372"/>
<trkpt lat="61.3149067" lon="6.2496851"/>
<trkpt lat="61.3151170" lon="6.2499246"/>
<trkpt lat="61.3153261" lon="6.2501554"/>
<trkpt lat="61.3155341" lon="6.2503771"/>
<trkpt lat="61.3157410" lon="6.2505895"/>
<trkpt lat="61.3159465" lon="6.2507922"/>
<trkpt lat="61.3161509" lon="6.2509850"/>
<trkpt lat="61.3163539" lon="6.2511676"/>
<trkpt lat="61.3165556" lon="6.2513395"/>
<trkpt lat="61.3167559" lon="6.2515006"/>
<trkpt lat="61.3169548" lon="6.2516505"/>
<trkpt lat="61.3171522" lon="6.2517889"/>
<trkpt lat="61.3173482" lon="6.2519155"/>
<trkpt lat="61.3175426" lon="6.2520300"/>
<trkpt lat="61.3177354" lon="6.2521320"/>
<trkpt lat="61.3179267" lon="6.2522214"/>
<trkpt lat="61.3181163" lon="6.2522977"/>
<trkpt lat="61.3183043" lon="6.2523607"/>
<trkpt lat="61.3184906" lon="6.2524101"/>
<trkpt lat="61.3186751" lon="6.2524455"/>
<trkpt lat="61.3188578" lon="6.2524666"/>
<trkpt lat="61.3190387" lon="6.2524732"/>
<trkpt lat="61.3192177" lon="6.2524649"/>
<trkpt lat="61.3193949" lon="6.2524415"/>
<trkpt lat="61.3195701" lon="6.2524025"/>
<trkpt lat="61.3197451" lon="6.2523491"/>
<trkpt lat="61.3199215" lon="6.2522823"/>
<trkpt lat="61.3200994" lon="6.2522026"/>
<trkpt lat="61.3202784" lon="6.2521101"/>
<trkpt lat="61.3204587" lon="6.2520050"/>
<trkpt lat="61.3206400" lon="6.2518876"/>
<trkpt lat="61.3208222" lon="6.2517580"/>
<trkpt lat="61.3210054" lon="6.2516165"/>
<trkpt lat="61.3211894" lon="6.2514633"/>
<trkpt lat="61.3213740" lon="6.2512986"/>
<trkpt lat="61.3215592" lon="6.2511227"/>
<trkpt lat="61.3217450" lon="6.2509357"/>
<trkpt lat="61.3219311" lon="6.2507379"/>
<trkpt lat="61.3221176" lon="6.2505296"/>
<trkpt lat="61.3223043" lon="6.2503108"/>
<trkpt lat="61.3224911" lon="6.2500818"/>
<trkpt lat="61.3226779" lon="6.2498430"/>
<trkpt lat="61.3228647" lon="6.2495944"/>
<trkpt lat="61.3230513" lon="6.2493363"/>
<trkpt lat="61.3232376" lon="6.2490689"/>
<trkpt lat="61.3234236" lon="6.2487924"/>
<trkpt lat="61.3236092" lon="6.2485071"/>
<trkpt lat="61.3237942" lon="6.2482132"/>
<trkpt lat="61.3239786" lon="6.2479109"/>
<trkpt lat="61.3241622" lon="6.2476004"/>
<trkpt lat="61.3243450" lon="6.2472819"/>
<trkpt lat="61.3245269" lon="6.2469556"/>
<trkpt lat="61.3247078" lon="6.2466219"/>
<trkpt lat="61.3248876" lon="6.2462808"/>
<trkpt lat="61.3250661" lon="6.2459326"/>
<trkpt lat="61.3252434" lon="6.2455776"/>
<trkpt lat="61.3254193" lon="6.2452159"/>
<trkpt lat="61.3255937" lon="6.2448478"/>
<trkpt lat="61.3257665" lon="6.2444734"/>
<trkpt lat="61.3259376" lon="6.2440931"/>
<trkpt lat="61.3261069" lon="6.2437070"/>
<trkpt lat="61.3262744" lon="6.2433153"/>
<trkpt lat="61.3264399" lon="6.2429183"/>
<trkpt lat="61.3266034" lon="6.2425162"/>
<trkpt lat="61.3267647" lon="6.2421092"/>
<trkpt lat="61.3269237" lon="6.2416975"/>
<trkpt lat="61.3270804" lon="6.2412813"/>
<trkpt lat="61.3272347" lon="6.2408609"/>
<trkpt lat="61.3273864" lon="6.2404365"/>
<trkpt lat="61.3275355" lon="6.2400083"/>
<trkpt lat="61.3276819" lon="6.2395765"/>
<trkpt lat="61.3278255" lon="6.2391413"/>
<trkpt lat="61.3279662" lon="6.2387030"/>
<trkpt lat="61.3281038" lon="6.2382618"/>
<trkpt lat="61.3282383" lon="6.2378178"/>
<trkpt lat="61.3283697" lon="6.2373714"/>
<trkpt lat="61.3284978" lon="6.2369227"/>
<trkpt lat="61.3286224" lon="6.2364720"/>
<trkpt lat="61.3287436" lon="6.2360194"/>
<trkpt lat="61.3288612" lon="6.2355653"/>
<trkpt lat="61.3289752" lon="6.2351097"/>
<trkpt lat="61.3290854" lon="6.2346530"/>
<trkpt lat="61.3291917" lon="6.2341953"/>
<trkpt lat="61.3292940" lon="6.2337369"/>
<trkpt lat="61.3293924" lon="6.2332779"/>
<trkpt lat="61.3294865" lon="6.2328187"/>
<trkpt lat="61.3295765" lon="6.2323594"/>
<trkpt lat="61.3296620" lon="6.2319003"/>
<trkpt lat="61.3297432" lon="6.2314415"/>
<trkpt lat="61.3298198" lon="6.2309833"/>
<trkpt lat="61.3298919" lon="6.2305259"/>
<trkpt lat="61.3299592" lon="6.2300696"/>
<trkpt lat="61.3300217" lon="6.2296144"/>
<trkpt lat="61.3300792" lon="6.2291608"/>
<trkpt lat="61.3301318" lon="6.2287088"/>
<trkpt lat="61.3301793" lon="6.2282587"/>
<trkpt lat="61.3302216" lon="6.2278108"/>
<trkpt lat="61.3302587" lon="6.2273652"/>
<trkpt lat="61.3302903" lon="6.2269221"/>
<trkpt lat="61.3303165" lon="6.2264818"/>
<trkpt lat="61.3303371" lon="6.2260445"/>
<trkpt lat="61.3303520" lon="6.2256105"/>
<trkpt lat="61.3303612" lon="6.2251798"/>
<trkpt lat="61.3303646" lon="6.2247528"/>
<trkpt lat="61.3303619" lon="6.2243297"/>
<trkpt lat="61.3303532" lon="6.2239058"/>
<trkpt lat="61.3303385" lon="6.2234761"/>
<trkpt lat="61.3303177" lon="6.2230408"/>
<trkpt lat="61.3302911" lon="6.2226002"/>
<trkpt lat="61.3302586" lon="6.2221544"/>
<trkpt lat="61.3302205" lon="6.2217035"/>
<trkpt lat="61.3301768" lon="6.2212476"/>
<trkpt lat="61.3301277" lon="6.2207870"/>
<trkpt lat="61.3300731" lon="6.2203217"/>
<trkpt lat="61.3300133" lon="6.2198520"/>
<trkpt lat="61.3299483" lon="6.2193780"/>
<trkpt lat="61.3298782" lon="6.2188998"/>
<trkpt lat="61.3298031" lon="6.2184176"/>
<trkpt lat="61.3297231" lon="6.2179315"/>
<trkpt lat="61.3296384" lon="6.2174418"/>
<trkpt lat="61.3295490" lon="6.2169485"/>
<trkpt lat="61.3294550" lon="6.2164518"/>
<trkpt lat="61.3293565" lon="6.2159519"/>
<trkpt lat="61.3292536" lon="6.2154489"/>
<trkpt lat="61.3291465" lon="6.2149429"/>
<trkpt lat="61.3290351" lon="6.2144342"/>
<trkpt lat="61.3289197" lon="6.2139228"/>
<trkpt lat="61.3288003" lon="6.2134090"/>
<trkpt lat="61.3286771" lon="6.2128929"/>
<trkpt lat="61.3285500" lon="6.2123746"/>
<trkpt lat="61.3284193" lon="6.2118543"/>
<trkpt lat="61.3282850" lon="6.2113321"/>
<trkpt lat="61.3281472" lon="6.2108083"/>
<trkpt lat="61.3280060" lon="6.2102828"/>
<trkpt lat="61.3278616" lon="6.2097560"/>
<trkpt lat="61.3277140" lon="6.2092280"/>
<trkpt lat="61.3275633" lon="6.2086988"/>
<trkpt lat="61.3274096" lon="6.2081687"/>
<trkpt lat="61.3272530" lon="6.2076379"/>
<trkpt lat="61.3270937" lon="6.2071064"/>
<trkpt lat="61.3269317" lon="6.2065744"/>
<trkpt lat="61.3267671" lon="6.2060421"/>
<trkpt lat="61.3266000" lon="6.2055097"/>
<trkpt lat="61.3264305" lon="6.2049772"/>
<trkpt lat="61.3262588" lon="6.2044449"/>
<trkpt lat="61.3260849" lon="6.2039128"/>
<trkpt lat="61.3259089" lon="6.2033812"/>
<trkpt lat="61.3257309" lon="6.2028502"/>
<trkpt lat="61.3255511" lon="6.2023200"/>
<trkpt lat="61.3253695" lon="6.2017906"/>
<trkpt lat="61.3251862" lon="6.2012624"/>
<trkpt lat="61.3250013" lon="6.2007353"/>
<trkpt lat="61.3248149" lon="6.2002096"/>
<trkpt lat="61.3246272" lon="6.1996854"/>
<trkpt lat="61.3244382" lon="6.1991629"/>
<trkpt lat="61.3242480" lon="6.1986423"/>
<trkpt lat="61.3240567" lon="6.1981236"/>
<trkpt lat="61.3238645" lon="6.1976070"/>
<trkpt lat="61.3236714" lon="6.1970927"/>
<trkpt lat="61.3234775" lon="6.1965809"/>
<trkpt lat="61.3232829" lon="6.1960717"/>
<trkpt lat="61.3230878" lon="6.1955652"/>
<trkpt lat="61.3228922" lon="6.1950616"/>
<trkpt lat="61.3226962" lon="6.1945611"/>
<trkpt lat="61.3224999" lon="6.1940638"/>
<trkpt lat="61.3223035" lon="6.1935698"/>
<trkpt lat="61.3221069" lon="6.1930794"/>
<trkpt lat="61.3219104" lon="6.1925926"/>
<trkpt lat="61.3217141" lon="6.1921097"/>
<trkpt lat="61.3215179" lon="6.1916307"/>
<trkpt lat="61.3213221" lon="6.1911559"/>
<trkpt lat="61.3211267" lon="6.1906853"/>
<trkpt lat="61.3209318" lon="6.1902192"/>
<trkpt lat="61.3207376" lon="6.1897577"/>
<trkpt lat="61.3205441" lon="6.1893009"/>
<trkpt lat="61.3203514" lon="6.1888490"/>
<trkpt lat="61.3201596" lon="6.1884022"/>
<trkpt lat="61.3199689" lon="6.1879606"/>
<trkpt lat="61.3197792" lon="6.1875243"/>
<trkpt lat="61.3195908" lon="6.1870936"/>
<trkpt lat="61.3194038" lon="6.1866685"/>
<trkpt lat="61.3192181" lon="6.1862492"/>
<trkpt lat="61.3190340" lon="6.1858359"/>
<trkpt lat="61.3188515" lon="6.1854287"/>
<trkpt lat="61.3186708" lon="6.1850278"/>
<trkpt lat="61.3184888" lon="6.1846306"/>
<trkpt lat="61.3183025" lon="6.1842343"/>
<trkpt lat="61.3181122" lon="6.1838389"/>
<trkpt lat="61.3179179" lon="6.1834447"/>
<trkpt lat="61.3177197" lon="6.1830515"/>
<trkpt lat="61.3175179" lon="6.1826594"/>
<trkpt lat="61.3173125" lon="6.1822686"/>
<trkpt lat="61.3171037" lon="6.1818790"/>
<trkpt lat="61.3168916" lon="6.1814908"/>
<trkpt lat="61.3166763" lon="6.1811039"/>
<trkpt lat="61.3164580" lon="6.1807184"/>
<trkpt lat="61.3162367" lon="6.1803344"/>
<trkpt lat="61.3160127" lon="6.1799520"/>
<trkpt lat="61.3157860" lon="6.1795711"/>
<trkpt lat="61.3155569" lon="6.1791919"/>
<trkpt lat="61.3153253" lon="6.1788144"/>
<trkpt lat="61.3150915" lon="6.1784386"/>
<trkpt lat="61.3148556" lon="6.1780647"/>
<trkpt lat="61.3146177" lon="6.1776926"/>
<trkpt lat="61.3143779" lon="6.1773225"/>
<trkpt lat="61.3141364" lon="6.1769543"/>
<trkpt lat="61.3138934" lon="6.1765881"/>
<trkpt lat="61.3136489" lon="6.1762240"/>
<trkpt lat="61.3134030" lon="6.1758621"/>
<trkpt lat="61.3131560" lon="6.1755023"/>
<trkpt lat="61.3129079" lon="6.1751448"/>
<trkpt lat="61.3126588" lon="6.1747896"/>
<trkpt lat="61.3124090" lon="6.1744368"/>
<trkpt lat="61.3121585" lon="6.1740864"/>
<trkpt lat="61.3119074" lon="6.1737384"/>
<trkpt lat="61.3116560" lon="6.1733930"/>
<trkpt lat="61.3114043" lon="6.1730501"/>
<trkpt lat="61.3111524" lon="6.1727099"/>
<trkpt lat="61.3109005" lon="6.1723724"/>
<trkpt lat="61.3106488" lon="6.1720376"/>
<trkpt lat="61.3103973" lon="6.1717056"/>
<trkpt lat="61.3101462" lon="6.1713764"/>
<trkpt lat="61.3098956" lon="6.1710502"/>
<trkpt lat="61.3096457" lon="6.1707269"/>
<trkpt lat="61.3093965" lon="6.1704066"/>
<trkpt lat="61.3091483" lon="6.1700894"/>
<trkpt lat="61.3089011" lon="6.1697753"/>
<trkpt lat="61.3086551" lon="6.1694644"/>
<trkpt lat="61.3084104" lon="6.1691568"/>
<trkpt lat="61.3081671" lon="6.1688524"/>
<trkpt lat="61.3079254" lon="6.1685514"/>
<trkpt lat="61.3076854" lon="6.1682538"/>
<trkpt lat="61.3074473" lon="6.1679596"/>
<trkpt lat="61.3072111" lon="6.1676689"/>
<trkpt lat="61.3069770" lon="6.1673818"/>
<trkpt lat="61.3067451" lon="6.1670984"/>
<trkpt lat="61.3065156" lon="6.1668186"/>
<trkpt lat="61.3062886" lon="6.1665425"/>
<trkpt lat="61.3060642" lon="6.1662702"/>
<trkpt lat="61.3058426" lon="6.1660017"/>
<trkpt lat="61.3056239" lon="6.1657372"/>
<trkpt lat="61.3054082" lon="6.1654766"/>
<trkpt lat="61.3051956" lon="6.1652199"/>
<trkpt lat="61.3049863" lon="6.1649674"/>
<trkpt lat="61.3047805" lon="6.1647189"/>
<trkpt lat="61.3045782" lon="6.1644747"/>
<trkpt lat="61.3043796" lon="6.1642346"/>
<trkpt lat="61.3041847" lon="6.1639988"/>
<trkpt lat="61.3039939" lon="6.1637674"/>
<trkpt lat="61.3038071" lon="6.1635403"/>
<trkpt lat="61.3036245" lon="6.1633177"/>
<trkpt lat="61.3034462" lon="6.1630996"/>
<trkpt lat="61.3032724" lon="6.1628860"/>
<trkpt lat="61.3031033" lon="6.1626771"/>
<trkpt lat="61.3029388" lon="6.1624728"/>
<trkpt lat="61.3027792" lon="6.1622732"/>
<trkpt lat="61.3026247" lon="6.1620783"/>
<trkpt lat="61.3024752" lon="6.1618884"/>
<trkpt lat="61.3023310" lon="6.1617032"/>
<trkpt lat="61.3021922" lon="6.1615231"/>
<trkpt lat="61.3020589" lon="6.1613479"/>
<trkpt lat="61.3019313" lon="6.1611777"/>
<trkpt lat="61.3018095" lon="6.1610127"/>
<trkpt lat="61.3016936" lon="6.1608528"/>
<trkpt lat="61.3015837" lon="6.1606981"/>
</trkseg></trk></gpx>
